NORAD_CAT_ID,OBJECT_NAME,OBJECT_TYPE,EPOCH,MEAN_MOTION,ECCENTRICITY,INCLINATION,RA_OF_ASC_NODE,ARG_OF_PERICENTER,MEAN_ANOMALY,BSTAR,MEAN_MOTION_DOT,MEAN_MOTION_DDOT,TLE_LINE0,TLE_LINE1,TLE_LINE2,SEMIMAJOR_AXIS,PERIOD,APOGEE,PERIGEE,DECAYED
53985.0,STARLINK-5147,PAYLOAD,2023-11-08 01:50:25,15.08840022,0.0001313,53.2169,81.8831,92.3726,267.7416,0.0017388,0.00027493,0.0,0 STARLINK-5147,1 53985U 22125X   23312.07668329  .00027493  00000-0  17388-2 0  9998,2 53985  53.2169  81.8831 0001313  92.3726 267.7416 15.08840022 60812,6917.88,95.438,540.654,538.837,0.0
53985.0,STARLINK-5147,PAYLOAD,2023-11-08 14:33:29,15.08874353,0.0001274,53.2159,79.5037,89.2127,270.9011,0.0018216,0.00028849,0.0,0 STARLINK-5147,1 53985U 22125X   23312.60659549  .00028849  00000-0  18216-2 0  9998,2 53985  53.2159  79.5037 0001274  89.2127 270.9011 15.08874353 60821,6917.775,95.435,540.522,538.759,0.0
53985.0,STARLINK-5147,PAYLOAD,2023-11-08 16:08:52,15.08880355,0.0001296,53.2163,79.2052,85.3546,274.7594,0.0019623,0.00031115,0.0,0 STARLINK-5147,1 53985U 22125X   23312.67283374  .00031115  00000-0  19623-2 0  9997,2 53985  53.2163  79.2052 0001296  85.3546 274.7594 15.08880355 60834,6917.757,95.435,540.519,538.726,0.0
53985.0,STARLINK-5147,PAYLOAD,2023-11-09 08:02:43,15.08879147,0.0001331,53.2175,76.233,100.4015,259.7127,0.001667,0.0002637,0.0,0 STARLINK-5147,1 53985U 22125X   23313.33522486  .00026370  00000-0  16670-2 0  9997,2 53985  53.2175  76.2330 0001331 100.4015 259.7127 15.08879147 61005,6917.761,95.435,540.546,538.705,0.0
53985.0,STARLINK-5147,PAYLOAD,2023-11-09 14:24:15,15.08879064,0.0001272,53.2162,75.0423,92.8032,267.3106,0.0014153,0.00022332,0.0,0 STARLINK-5147,1 53985U 22125X   23313.60018048  .00022332  00000-0  14153-2 0  9999,2 53985  53.2162  75.0423 0001272  92.8032 267.3106 15.08879064 60973,6917.761,95.435,540.506,538.746,0.0
53985.0,STARLINK-5147,PAYLOAD,2023-11-09 15:59:38,15.0887693,0.0001341,53.2172,74.7462,85.2821,274.8325,0.0011945,0.00018793,0.0,0 STARLINK-5147,1 53985U 22125X   23313.66641967  .00018793  00000-0  11945-2 0  9999,2 53985  53.2172  74.7462 0001341  85.2821 274.8325 15.08876930 61057,6917.768,95.435,540.56,538.705,0.0
53985.0,STARLINK-5147,PAYLOAD,2023-11-10 01:31:56,15.08873168,0.0001368,53.2179,72.9641,80.8395,279.2752,0.0008657,0.00013529,0.0,0 STARLINK-5147,1 53985U 22125X   23314.06385388  .00013529  00000-0  86570-3 0  9995,2 53985  53.2179  72.9641 0001368  80.8395 279.2752 15.08873168 61119,6917.779,95.435,540.59,538.698,0.0
53985.0,STARLINK-5147,PAYLOAD,2023-11-10 14:15:00,15.08884302,0.0001333,53.2171,70.5823,89.7906,270.3239,0.00079939,0.00012473,0.0,0 STARLINK-5147,1 53985U 22125X   23314.59375982  .00012473  00000-0  79939-3 0  9990,2 53985  53.2171  70.5823 0001333  89.7906 270.3239 15.08884302 61120,6917.745,95.435,540.532,538.688,0.0
53985.0,STARLINK-5147,PAYLOAD,2023-11-11 10:55:02,15.08836266,0.0001705,53.2195,66.7113,104.9396,255.1785,-0.00023453,-4.018e-05,0.0,0 STARLINK-5147,1 53985U 22125X   23315.45488475 -.00004018  00000-0 -23453-3 0  9996,2 53985  53.2195  66.7113 0001705 104.9396 255.1785 15.08836266 61326,6917.892,95.438,540.936,538.577,0.0
53985.0,STARLINK-5147,PAYLOAD,2023-11-11 14:05:48,15.0882617,0.000168,53.2178,66.1232,100.2839,259.8343,-0.00058252,-9.543e-05,0.0,0 STARLINK-5147,1 53985U 22125X   23315.58736745 -.00009543  00000-0 -58252-3 0  9999,2 53985  53.2178  66.1232 0001680 100.2839 259.8343 15.08826170 61274,6917.923,95.438,540.95,538.625,0.0
53985.0,STARLINK-5147,PAYLOAD,2023-11-12 12:21:13,15.08832986,0.000181,53.2183,61.958,106.2097,253.9094,-1.5226e-05,-5.3e-06,0.0,0 STARLINK-5147,1 53985U 22125X   23316.51473721 -.00000530  00000-0 -15226-4 0  9997,2 53985  53.2183  61.9580 0001810 106.2097 253.9094 15.08832986 61412,6917.902,95.438,541.019,538.515,0.0
53985.0,STARLINK-5147,PAYLOAD,2023-11-12 17:07:22,15.08838724,0.0001819,53.2181,61.0651,108.1391,251.9799,0.00016087,2.273e-05,0.0,0 STARLINK-5147,1 53985U 22125X   23316.71345695  .00002273  00000-0  16087-3 0  9996,2 53985  53.2181  61.0651 0001819 108.1391 251.9799 15.08838724 61514,6917.884,95.438,541.008,538.491,0.0
53985.0,STARLINK-5147,PAYLOAD,2023-11-13 13:47:23,15.08861337,0.0001769,53.2192,57.2045,102.5484,257.5706,0.00086132,0.00013454,0.0,0 STARLINK-5147,1 53985U 22125X   23317.57457749  .00013454  00000-0  86132-3 0  9996,2 53985  53.2192  57.2045 0001769 102.5484 257.5706 15.08861337 61577,6917.815,95.436,540.904,538.456,0.0
53985.0,STARLINK-5147,PAYLOAD,2023-11-13 23:19:42,15.08858753,0.0001439,53.2185,55.4162,91.6384,268.4773,0.00054923,8.468e-05,0.0,0 STARLINK-5147,1 53985U 22125X   23317.97201409  .00008468  00000-0  54923-3 0  9992,2 53985  53.2185  55.4162 0001439  91.6384 268.4773 15.08858753 61708,6917.823,95.436,540.684,538.693,0.0
53985.0,STARLINK-5147,PAYLOAD,2023-11-14 12:02:47,15.08833941,0.000177,53.2191,53.0383,92.5885,267.531,-0.00012667,-2.303e-05,0.0,0 STARLINK-5147,1 53985U 22125X   23318.50194135 -.00002303  00000-0 -12667-3 0  9992,2 53985  53.2191  53.0383 0001770  92.5885 267.5310 15.08833941 61785,6917.899,95.438,540.988,538.539,0.0
53985.0,STARLINK-5147,PAYLOAD,2023-11-14 13:38:10,15.08837977,0.000173,53.2189,52.7427,92.1811,267.9379,1.1864e-05,-9.9e-07,0.0,0 STARLINK-5147,1 53985U 22125X   23318.56818069 -.00000099  00000-0  11864-4 0  9995,2 53985  53.2189  52.7427 0001730  92.1811 267.9379 15.08837977 61724,6917.887,95.438,540.948,538.555,0.0
53985.0,STARLINK-5147,PAYLOAD,2023-11-15 11:53:34,15.08849435,0.0001572,53.2174,48.5801,83.6302,276.4869,0.0007836,0.00012208,0.0,0 STARLINK-5147,1 53985U 22125X   23319.49554322  .00012208  00000-0  78360-3 0  9994,2 53985  53.2174  48.5801 0001572  83.6302 276.4869 15.08849435 61935,6917.852,95.437,540.804,538.629,0.0
53985.0,STARLINK-5147,PAYLOAD,2023-11-15 13:28:57,15.08853658,0.0001574,53.2174,48.2828,82.9921,277.125,0.00089696,0.00014021,0.0,0 STARLINK-5147,1 53985U 22125X   23319.56178235  .00014021  00000-0  89696-3 0  9996,2 53985  53.2174  48.2828 0001574  82.9921 277.1250 15.08853658 61879,6917.839,95.437,540.793,538.615,0.0
53985.0,STARLINK-5147,PAYLOAD,2023-11-15 23:01:16,15.08847,0.0001856,53.2175,46.4962,87.6675,272.453,0.00050708,7.793e-05,0.0,0 STARLINK-5147,1 53985U 22125X   23319.95922302  .00007793  00000-0  50708-3 0  9991,2 53985  53.2175  46.4962 0001856  87.6675 272.4530 15.08847000 62009,6917.859,95.437,541.008,538.44,0.0
53985.0,STARLINK-5147,PAYLOAD,2023-11-16 14:55:08,15.08839544,0.0001549,53.2168,43.5246,84.4468,275.67,5.6139e-05,6.06e-06,0.0,0 STARLINK-5147,1 53985U 22125X   23320.62162302  .00000606  00000-0  56139-4 0  9994,2 53985  53.2168  43.5246 0001549  84.4468 275.6700 15.08839544 62107,6917.882,95.438,540.818,538.675,0.0
53985.0,STARLINK-5147,PAYLOAD,2023-11-17 13:10:32,15.0884407,0.0001443,53.2168,39.3627,86.4483,273.6674,4.475e-05,4.24e-06,0.0,0 STARLINK-5147,1 53985U 22125X   23321.54898277  .00000424  00000-0  44750-4 0  9997,2 53985  53.2168  39.3627 0001443  86.4483 273.6674 15.08844070 62170,6917.868,95.437,540.731,538.735,0.0
53985.0,STARLINK-5147,PAYLOAD,2023-11-17 22:42:51,15.08839259,0.000139,53.2167,37.5776,90.2684,269.8468,-3.4752e-06,-3.43e-06,0.0,0 STARLINK-5147,1 53985U 22125X   23321.94642505 -.00000343  00000-0 -34752-5 0  9996,2 53985  53.2167  37.5776 0001390  90.2684 269.8468 15.08839259 62307,6917.883,95.438,540.709,538.786,0.0
53985.0,STARLINK-5147,PAYLOAD,2023-11-18 11:25:56,15.08839015,0.0001365,53.218,35.1989,88.0794,272.0355,0.00010791,1.43e-05,0.0,0 STARLINK-5147,1 53985U 22125X   23322.47634716  .00001430  00000-0  10791-3 0  9991,2 53985  53.2180  35.1989 0001365  88.0794 272.0355 15.08839015 62313,6917.883,95.438,540.693,538.804,0.0
53985.0,STARLINK-5147,PAYLOAD,2023-11-18 22:33:38,15.08840939,0.0001392,53.2179,33.1172,88.1901,271.9251,0.00010525,1.388e-05,0.0,0 STARLINK-5147,1 53985U 22125X   23322.94002525  .00001388  00000-0  10525-3 0  9997,2 53985  53.2179  33.1172 0001392  88.1901 271.9251 15.08840939 62381,6917.878,95.437,540.705,538.78,0.0
53985.0,STARLINK-5147,PAYLOAD,2023-11-19 11:16:42,15.08849751,0.0001435,53.2185,30.7378,89.8899,270.2257,0.00011084,1.477e-05,0.0,0 STARLINK-5147,1 53985U 22125X   23323.46994024  .00001477  00000-0  11084-3 0  9999,2 53985  53.2185  30.7378 0001435  89.8899 270.2257 15.08849751 62537,6917.851,95.437,540.708,538.723,0.0
53985.0,STARLINK-5147,PAYLOAD,2023-11-19 14:27:28,15.08853372,0.0001481,53.2184,30.1426,90.8238,269.2923,0.00011785,1.589e-05,0.0,0 STARLINK-5147,1 53985U 22125X   23323.60241711  .00001589  00000-0  11785-3 0  9995,2 53985  53.2184  30.1426 0001481  90.8238 269.2923 15.08853372 62480,6917.84,95.437,540.729,538.68,0.0
53985.0,STARLINK-5147,PAYLOAD,2023-11-20 11:07:30,15.08843642,0.0001429,53.2189,26.2778,89.4957,270.6199,0.00011985,1.62e-05,0.0,0 STARLINK-5147,1 53985U 22125X   23324.46354339  .00001620  00000-0  11985-3 0  9999,2 53985  53.2189  26.2778 0001429  89.4957 270.6199 15.08843642 62687,6917.869,95.437,540.723,538.746,0.0
53985.0,STARLINK-5147,PAYLOAD,2023-11-20 20:39:49,15.08840804,0.0001453,53.2179,24.4937,87.691,272.4249,3.7364e-05,3.07e-06,0.0,0 STARLINK-5147,1 53985U 22125X   23324.86098436  .00000307  00000-0  37364-4 0  9997,2 53985  53.2179  24.4937 0001453  87.6910 272.4249 15.08840804 62671,6917.878,95.438,540.748,538.738,0.0
53985.0,STARLINK-5147,PAYLOAD,2023-11-21 12:33:39,15.08849536,0.0001539,53.2184,21.5198,91.3921,268.7247,0.00012172,1.65e-05,0.0,0 STARLINK-5147,1 53985U 22125X   23325.52337909  .00001650  00000-0  12172-3 0  9993,2 53985  53.2184  21.5198 0001539  91.3921 268.7247 15.08849536 62771,6917.851,95.437,540.781,538.652,0.0
53985.0,STARLINK-5147,PAYLOAD,2023-11-22 09:13:40,15.08844399,0.0001501,53.2181,17.6537,94.8303,265.286,0.00010418,1.371e-05,0.0,0 STARLINK-5147,1 53985U 22125X   23326.38449999  .00001371  00000-0  10418-3 0  9992,2 53985  53.2181  17.6537 0001501  94.8303 265.2860 15.08844399 62979,6917.867,95.437,540.77,538.694,0.0
